ONEWEB-0045             
1 45151U 20008W   24289.09466713 -.00001462  00000+0 -41633-2 0  9990
2 45151  87.8920 142.5721 0001778  84.3143 275.8188 13.11404972231221
ONEWEB-0047             
1 45152U 20008X   24289.12904205 -.00000592  00000+0 -17331-2 0  9999
2 45152  87.8943 157.7165 0001572  77.5268 282.6035 13.10371569229094
ONEWEB-0049             
1 45154U 20008Z   24289.12572914 -.00000538  00000+0 -15776-2 0  9990
2 45154  87.8948 157.7194 0001083  67.3031 292.8211 13.10371793228913
ONEWEB-0051             
1 45155U 20008AA  24289.09296341 -.00000703  00000+0 -20185-2 0  9998
2 45155  87.8918 142.6141 0001757  76.6808 283.4515 13.11417123231904
ONEWEB-0052             
1 45156U 20008AB  24289.12240840 -.00000521  00000+0 -15282-2 0  9996
2 45156  87.8939 157.6822 0001032  72.6937 287.4303 13.10370014228805
ONEWEB-0054             
1 45158U 20008AD  24289.13900755 -.00000409  00000+0 -12070-2 0  9994
2 45158  87.8943 157.7140 0001633  73.8799 286.2508 13.10374471228896
